NORAD_CAT_ID,OBJECT_NAME,OBJECT_TYPE,EPOCH,MEAN_MOTION,ECCENTRICITY,INCLINATION,RA_OF_ASC_NODE,ARG_OF_PERICENTER,MEAN_ANOMALY,BSTAR,MEAN_MOTION_DOT,MEAN_MOTION_DDOT,TLE_LINE0,TLE_LINE1,TLE_LINE2,SEMIMAJOR_AXIS,PERIOD,APOGEE,PERIGEE,DECAYED
53916.0,STARLINK-5051,PAYLOAD,2023-03-17 04:43:13,15.08818373,0.0001384,53.2177,140.3316,92.9351,267.1799,-0.0003311,-5.55e-05,0.0,0 STARLINK-5051,1 53916U 22119AG  23076.19668271 -.00005550  00000-0 -33110-3 0  9995,2 53916  53.2177 140.3316 0001384  92.9351 267.1799 15.08818373 27367,6917.946,95.439,540.769,538.854,0.0
53916.0,STARLINK-5051,PAYLOAD,2023-03-17 11:04:45,15.08820853,0.0001211,53.218,139.1437,85.7036,274.4094,-0.00025351,-4.318e-05,0.0,0 STARLINK-5051,1 53916U 22119AG  23076.46164028 -.00004318  00000-0 -25351-3 0  9995,2 53916  53.2180 139.1437 0001211  85.7036 274.4094 15.08820853 27400,6917.939,95.439,540.642,538.966,0.0
53916.0,STARLINK-5051,PAYLOAD,2023-03-17 20:37:03,15.08835122,0.0001338,53.2191,137.3611,105.165,254.949,-0.00026502,-4.503e-05,0.0,0 STARLINK-5051,1 53916U 22119AG  23076.85907317 -.00004503  00000-0 -26502-3 0  9999,2 53916  53.2191 137.3611 0001338 105.1650 254.9490 15.08835122 27896,6917.895,95.438,540.686,538.835,0.0
53916.0,STARLINK-5051,PAYLOAD,2023-03-18 02:58:37,15.08824819,9.11e-05,53.2178,136.1692,87.8448,272.2648,-7.8763e-05,-1.54e-05,0.0,0 STARLINK-5051,1 53916U 22119AG  23077.12403963 -.00001540  00000-0 -78763-4 0  9993,2 53916  53.2178 136.1692 0000911  87.8448 272.2648 15.08824819 27501,6917.927,95.439,540.422,539.162,0.0
53916.0,STARLINK-5051,PAYLOAD,2023-03-18 10:55:30,15.08846164,7.78e-05,53.2173,134.6813,77.8834,282.2246,0.00010647,1.407e-05,0.0,0 STARLINK-5051,1 53916U 22119AG  23077.45521876  .00001407  00000-0  10647-3 0  9999,2 53916  53.2173 134.6813 0000778  77.8834 282.2246 15.08846164 27550,6917.862,95.437,540.265,539.188,0.0
53916.0,STARLINK-5051,PAYLOAD,2023-03-18 20:27:50,15.08832846,0.0001589,53.2172,132.8954,89.04,271.0775,-2.3341e-05,-6.59e-06,0.0,0 STARLINK-5051,1 53916U 22119AG  23077.85267193 -.00000659  00000-0 -23341-4 0  9998,2 53916  53.2172 132.8954 0001589  89.0400 271.0775 15.08832846 27612,6917.902,95.438,540.867,538.668,0.0
53916.0,STARLINK-5051,PAYLOAD,2023-03-19 10:46:18,15.0884136,0.0001014,53.2179,130.2211,82.0967,278.014,0.00020738,3.014e-05,0.0,0 STARLINK-5051,1 53916U 22119AG  23078.44882175  .00003014  00000-0  20738-3 0  9999,2 53916  53.2179 130.2211 0001014  82.0967 278.0140 15.08841360 28133,6917.876,95.437,540.443,539.04,0.0
53916.0,STARLINK-5051,PAYLOAD,2023-03-19 15:32:27,15.08848772,0.0001073,53.2177,129.3286,82.1622,277.9492,0.00025063,3.704e-05,0.0,0 STARLINK-5051,1 53916U 22119AG  23078.64753473  .00003704  00000-0  25063-3 0  9991,2 53916  53.2177 129.3286 0001073  82.1622 277.9492 15.08848772 27733,6917.854,95.437,540.461,538.976,0.0
53916.0,STARLINK-5051,PAYLOAD,2023-03-19 20:18:38,15.0882391,9.84e-05,53.2165,128.4363,84.1435,275.967,-1.0513e-05,-4.55e-06,0.0,0 STARLINK-5051,1 53916U 22119AG  23078.84627869 -.00000455  00000-0 -10513-4 0  9999,2 53916  53.2165 128.4363 0000984  84.1435 275.9670 15.08823910 28194,6917.93,95.439,540.475,539.114,0.0
53916.0,STARLINK-5051,PAYLOAD,2023-03-20 10:37:05,15.08847859,0.0001087,53.218,125.76,85.3306,274.7811,-3.7699e-05,-8.88e-06,0.0,0 STARLINK-5051,1 53916U 22119AG  23079.44242451 -.00000888  00000-0 -37699-4 0  9990,2 53916  53.2180 125.7600 0001087  85.3306 274.7811 15.08847859 27854,6917.856,95.437,540.473,538.969,0.0
53916.0,STARLINK-5051,PAYLOAD,2023-03-20 12:12:28,15.08846495,0.0001228,53.2181,125.4638,89.8046,270.3087,3.4858e-05,2.67e-06,0.0,0 STARLINK-5051,1 53916U 22119AG  23079.50866258  .00000267  00000-0  34858-4 0  9997,2 53916  53.2181 125.4638 0001228  89.8046 270.3087 15.08846495 28291,6917.861,95.437,540.575,538.876,0.0
53916.0,STARLINK-5051,PAYLOAD,2023-03-20 20:09:24,15.08843944,0.0001186,53.2184,123.9756,74.6427,285.4696,-0.00015194,-2.705e-05,0.0,0 STARLINK-5051,1 53916U 22119AG  23079.83986897 -.00002705  00000-0 -15194-3 0  9997,2 53916  53.2184 123.9756 0001186  74.6427 285.4696 15.08843944 28341,6917.868,95.437,540.554,538.913,0.0
53916.0,STARLINK-5051,PAYLOAD,2023-03-21 02:30:57,15.08829953,0.000122,53.2176,122.7861,86.0339,274.0792,-5.1384e-05,-1.105e-05,0.0,0 STARLINK-5051,1 53916U 22119AG  23080.10483468 -.00001105  00000-0 -51384-4 0  9990,2 53916  53.2176 122.7861 0001220  86.0339 274.0792 15.08829953 27955,6917.911,95.438,540.62,538.932,0.0
53916.0,STARLINK-5051,PAYLOAD,2023-03-21 10:27:53,15.08838442,0.0001195,53.2176,121.2999,86.3234,273.7895,-0.00015587,-2.768e-05,0.0,0 STARLINK-5051,1 53916U 22119AG  23080.43603410 -.00002768  00000-0 -15587-3 0  9997,2 53916  53.2176 121.2999 0001195  86.3234 273.7895 15.08838442 28436,6917.885,95.438,540.577,538.923,0.0
53916.0,STARLINK-5051,PAYLOAD,2023-03-21 20:00:11,15.08845974,0.0001192,53.2178,119.5159,81.4296,278.6831,-0.0001317,-2.384e-05,0.0,0 STARLINK-5051,1 53916U 22119AG  23080.83346805 -.00002384  00000-0 -13170-3 0  9993,2 53916  53.2178 119.5159 0001192  81.4296 278.6831 15.08845974 28068,6917.862,95.437,540.552,538.903,0.0
53916.0,STARLINK-5051,PAYLOAD,2023-03-22 19:50:58,15.08846789,0.0001236,53.2176,115.0559,102.2778,257.8352,8.623e-06,-1.51e-06,0.0,0 STARLINK-5051,1 53916U 22119AG  23081.82706053 -.00000151  00000-0  86230-5 0  9996,2 53916  53.2176 115.0559 0001236 102.2778 257.8352 15.08846789 28216,6917.86,95.437,540.58,538.87,0.0
53916.0,STARLINK-5051,PAYLOAD,2023-03-23 11:44:49,15.08843287,0.0001367,53.2179,112.08,97.264,262.8507,0.00011554,1.552e-05,0.0,0 STARLINK-5051,1 53916U 22119AG  23082.48945840  .00001552  00000-0  11554-3 0  9998,2 53916  53.2179 112.0800 0001367  97.2640 262.8507 15.08843287 28747,6917.87,95.437,540.681,538.79,0.0
53916.0,STARLINK-5051,PAYLOAD,2023-03-24 05:14:03,15.08844846,0.000147,53.2169,108.8134,80.5393,279.5765,6.4546e-06,-1.85e-06,0.0,0 STARLINK-5051,1 53916U 22119AG  23083.21810149 -.00000185  00000-0  64546-5 0  9996,2 53916  53.2169 108.8134 0001470  80.5393 279.5765 15.08844846 28422,6917.866,95.437,540.748,538.714,0.0
53916.0,STARLINK-5051,PAYLOAD,2023-03-24 11:35:35,15.08860538,0.0001374,53.2183,107.6172,110.1512,249.9628,2.3359e-05,8.4e-07,0.0,0 STARLINK-5051,1 53916U 22119AG  23083.48304695  .00000084  00000-0  23359-4 0  9992,2 53916  53.2183 107.6172 0001374 110.1512 249.9628 15.08860538 28462,6917.818,95.436,540.633,538.732,0.0
53916.0,STARLINK-5051,PAYLOAD,2023-03-24 13:10:57,15.08864993,0.0001431,53.219,107.3208,114.2956,245.8186,5.5864e-05,6.02e-06,0.0,0 STARLINK-5051,1 53916U 22119AG  23083.54928198  .00000602  00000-0  55864-4 0  9991,2 53916  53.2190 107.3208 0001431 114.2956 245.8186 15.08864993 28900,6917.804,95.436,540.659,538.679,0.0
53916.0,STARLINK-5051,PAYLOAD,2023-03-25 06:40:15,15.08821795,0.000149,53.2186,104.0502,107.5165,252.599,-0.00019909,-3.453e-05,0.0,0 STARLINK-5051,1 53916U 22119AG  23084.27796065 -.00003453  00000-0 -19909-3 0  9996,2 53916  53.2186 104.0502 0001490 107.5165 252.5990 15.08821795 28583,6917.936,95.439,540.832,538.77,0.0
53916.0,STARLINK-5051,PAYLOAD,2023-03-25 17:47:57,15.08836732,0.0001356,53.2187,101.9712,92.6743,267.4404,-0.00012644,-2.299e-05,0.0,0 STARLINK-5051,1 53916U 22119AG  23084.74163254 -.00002299  00000-0 -12644-3 0  9992,2 53916  53.2187 101.9712 0001356  92.6743 267.4404 15.08836732 28650,6917.89,95.438,540.693,538.817,0.0
53916.0,STARLINK-5051,PAYLOAD,2023-03-26 11:17:10,15.08850647,0.00014,53.2192,98.6983,108.328,251.7864,1.2138e-05,-9.5e-07,0.0,0 STARLINK-5051,1 53916U 22119AG  23085.47025959 -.00000095  00000-0  12138-4 0  9992,2 53916  53.2192  98.6983 0001400 108.3280 251.7864 15.08850647 28768,6917.848,95.437,540.681,538.744,0.0
53916.0,STARLINK-5051,PAYLOAD,2023-03-26 17:38:43,15.0884476,0.0001348,53.2192,97.5113,90.5176,269.597,-0.00011676,-2.146e-05,0.0,0 STARLINK-5051,1 53916U 22119AG  23085.73522539 -.00002146  00000-0 -11676-3 0  9992,2 53916  53.2192  97.5113 0001348  90.5176 269.5970 15.08844760 28807,6917.866,95.437,540.663,538.798,0.0
53916.0,STARLINK-5051,PAYLOAD,2023-03-27 04:46:26,15.08829214,0.0001211,53.2189,95.4308,100.3396,259.7732,4.148e-05,3.72e-06,0.0,0 STARLINK-5051,1 53916U 22119AG  23086.19891589  .00000372  00000-0  41480-4 0  9991,2 53916  53.2189  95.4308 0001211 100.3396 259.7732 15.08829214 28870,6917.913,95.438,540.616,538.941,0.0
53916.0,STARLINK-5051,PAYLOAD,2023-03-27 09:32:35,15.08831839,0.0001192,53.2181,94.5376,91.9321,268.1807,7.1739e-05,8.54e-06,0.0,0 STARLINK-5051,1 53916U 22119AG  23086.39763450  .00000854  00000-0  71739-4 0  9993,2 53916  53.2181  94.5376 0001192  91.9321 268.1807 15.08831839 29333,6917.905,95.438,540.595,538.946,0.0
53916.0,STARLINK-5051,PAYLOAD,2023-03-27 17:29:31,15.08832836,0.0001228,53.2183,93.051,92.9947,267.1186,6.5553e-05,7.55e-06,0.0,0 STARLINK-5051,1 53916U 22119AG  23086.72883543  .00000755  00000-0  65553-4 0  9993,2 53916  53.2183  93.0510 0001228  92.9947 267.1186 15.08832836 29386,6917.902,95.438,540.617,538.918,0.0
53916.0,STARLINK-5051,PAYLOAD,2023-03-28 04:37:12,15.08842864,0.0001301,53.219,90.9702,98.4715,261.6424,1.1387e-05,-1.07e-06,0.0,0 STARLINK-5051,1 53916U 22119AG  23087.19251141 -.00000107  00000-0  11387-4 0  9996,2 53916  53.2190  90.9702 0001301  98.4715 261.6424 15.08842864 29026,6917.872,95.437,540.637,538.837,0.0
53916.0,STARLINK-5051,PAYLOAD,2023-03-28 09:23:21,15.0884949,0.0001283,53.2186,90.0777,94.6013,265.5126,3.9426e-05,3.4e-06,0.0,0 STARLINK-5051,1 53916U 22119AG  23087.39122567  .00000340  00000-0  39426-4 0  9999,2 53916  53.2186  90.0777 0001283  94.6013 265.5126 15.08849490 29486,6917.851,95.437,540.604,538.829,0.0
53916.0,STARLINK-5051,PAYLOAD,2023-03-28 17:20:18,15.08844965,0.0001232,53.2179,88.5917,81.8825,278.2307,-4.3823e-05,-9.85e-06,0.0,0 STARLINK-5051,1 53916U 22119AG  23087.72243078 -.00000985  00000-0 -43823-4 0  9990,2 53916  53.2179  88.5917 0001232  81.8825 278.2307 15.08844965 29539,6917.865,95.437,540.582,538.878,0.0
